start=new Date('2021-12-13T00:00:00.000Z').valueOf();
sats=[{"OBJECT_TYPE":"PAYLOAD","OBJECT_NAME":"STARLINK-1601","MEAN_MOTION_DDOT":"0.0000000000000","TLE_LINE2":"2 46120  53.0559  64.8000 0001289  74.7034 285.4098 15.06392674 74061","CLASSIFICATION_TYPE":"U","GP_ID":"191584185","ELEMENT_SET_NO":"999","TLE_LINE1":"1 46120U 20057D   21346.92651439  .00000960  00000-0  83335-4 0  9993","SEMIMAJOR_AXIS":"6925.371","FILE":"3238376","RA_OF_ASC_NODE":"64.8000","REV_AT_EPOCH":"7406","CENTER_NAME":"EARTH","NORAD_CAT_ID":"46120","DECAY_DATE":null,"PERIOD":"95.593","RCS_SIZE":"LARGE","BSTAR":"0.00008333500000","MEAN_ELEMENT_THEORY":"SGP4","MEAN_ANOMALY":"285.4098","MEAN_MOTION":"15.06392674","TIME_SYSTEM":"UTC","EPOCH":"2021-12-12T22:14:10.843296","OBJECT_ID":"2020-057D","REF_FRAME":"TEME","APOAPSIS":"548.129","SITE":"AFETR","ARG_OF_PERICENTER":"74.7034","INCLINATION":"53.0559","EPHEMERIS_TYPE":"0","MEAN_MOTION_DOT":"0.00000960","PERIAPSIS":"546.343","COUNTRY_CODE":"US","ECCENTRICITY":"0.00012890","LAUNCH_DATE":"2020-08-18"},{"REV_AT_EPOCH":"7305","FILE":"3238376","RA_OF_ASC_NODE":"44.9433","RCS_SIZE":"LARGE","DECAY_DATE":null,"PERIOD":"95.592","MEAN_ELEMENT_THEORY":"SGP4","BSTAR":"-0.00002997000000","CENTER_NAME":"EARTH","NORAD_CAT_ID":"46121","MEAN_ANOMALY":"300.5936","MEAN_MOTION":"15.06396105","OBJECT_NAME":"STARLINK-1602","MEAN_MOTION_DDOT":"0.0000000000000","OBJECT_TYPE":"PAYLOAD","GP_ID":"191584938","ELEMENT_SET_NO":"999","TLE_LINE1":"1 46121U 20057E   21346.89518293 -.00000728  00000-0 -29970-4 0  9999","SEMIMAJOR_AXIS":"6925.360","CLASSIFICATION_TYPE":"U","TLE_LINE2":"2 46121  53.0560  44.9433 0001578  59.5209 300.5936 15.06396105 73050","MEAN_MOTION_DOT":"-0.00000728","PERIAPSIS":"546.133","COUNTRY_CODE":"US","ECCENTRICITY":"0.00015780","LAUNCH_DATE":"2020-08-18","EPOCH":"2021-12-12T21:29:03.805152","TIME_SYSTEM":"UTC","APOAPSIS":"548.318","OBJECT_ID":"2020-057E","REF_FRAME":"TEME","INCLINATION":"53.0560","EPHEMERIS_TYPE":"0","ARG_OF_PERICENTER":"59.5209","SITE":"AFETR"},{"ARG_OF_PERICENTER":"57.8020","SITE":"AFETR","EPHEMERIS_TYPE":"0","INCLINATION":"53.0554","TIME_SYSTEM":"UTC","EPOCH":"2021-12-12T20:06:48.142080","REF_FRAME":"TEME","OBJECT_ID":"2020-057F","APOAPSIS":"548.327","ECCENTRICITY":"0.00015760","LAUNCH_DATE":"2020-08-18","PERIAPSIS":"546.144","MEAN_MOTION_DOT":"0.00000902","COUNTRY_CODE":"US","TLE_LINE2":"2 46122  53.0554  25.1904 0001576  57.8020 302.3122 15.06392715 74587","CLASSIFICATION_TYPE":"U","TLE_LINE1":"1 46122U 20057F   21346.83805720  .00000902  00000-0  79433-4 0  9999","ELEMENT_SET_NO":"999","SEMIMAJOR_AXIS":"6925.371","GP_ID":"191585684","OBJECT_TYPE":"PAYLOAD","OBJECT_NAME":"STARLINK-1604","MEAN_MOTION_DDOT":"0.0000000000000","MEAN_ANOMALY":"302.3122","MEAN_MOTION":"15.06392715","RA_OF_ASC_NODE":"25.1904","FILE":"3238376","REV_AT_EPOCH":"7458","NORAD_CAT_ID":"46122","CENTER_NAME":"EARTH","BSTAR":"0.00007943300000","MEAN_ELEMENT_THEORY":"SGP4","RCS_SIZE":"LARGE","DECAY_DATE":null,"PERIOD":"95.593"},{"REV_AT_EPOCH":"7460","RA_OF_ASC_NODE":"25.2622","FILE":"3238376","BSTAR":"0.00016342000000","MEAN_ELEMENT_THEORY":"SGP4","DECAY_DATE":null,"RCS_SIZE":"LARGE","PERIOD":"95.592","NORAD_CAT_ID":"46123","CENTER_NAME":"EARTH","MEAN_ANOMALY":"298.4917","MEAN_MOTION":"15.06406175","OBJECT_NAME":"STARLINK-1605","MEAN_MOTION_DDOT":"0.0000000000000","OBJECT_TYPE":"PAYLOAD","ELEMENT_SET_NO":"999","TLE_LINE1":"1 46123U 20057G   21346.82329943  .00002154  00000-0  16342-3 0  9997","SEMIMAJOR_AXIS":"6925.330","GP_ID":"191586441","TLE_LINE2":"2 46123  53.0559  25.2622 0001375  61.6211 298.4917 15.06406175 74609","CLASSIFICATION_TYPE":"U","PERIAPSIS":"546.242","MEAN_MOTION_DOT":"0.00002154","COUNTRY_CODE":"US","ECCENTRICITY":"0.00013750","LAUNCH_DATE":"2020-08-18","EPOCH":"2021-12-12T19:45:33.070752","TIME_SYSTEM":"UTC","APOAPSIS":"548.147","REF_FRAME":"TEME","OBJECT_ID":"2020-057G","EPHEMERIS_TYPE":"0","INCLINATION":"53.0559","ARG_OF_PERICENTER":"61.6211","SITE":"AFETR"},{"EPHEMERIS_TYPE":"0","INCLINATION":"53.0565","ARG_OF_PERICENTER":"50.3445","SITE":"AFETR","EPOCH":"2021-12-12T19:56:11.450112","TIME_SYSTEM":"UTC","APOAPSIS":"548.281","REF_FRAME":"TEME","OBJECT_ID":"2020-057H","ECCENTRICITY":"0.00015010","LAUNCH_DATE":"2020-08-18","PERIAPSIS":"546.202","MEAN_MOTION_DOT":"0.00001102","COUNTRY_CODE":"US","SEMIMAJOR_AXIS":"6925.376","TLE_LINE1":"1 46124U 20057H   21346.83068808  .00001102  00000-0  92875-4 0  9997","ELEMENT_SET_NO":"999","GP_ID":"191584686","CLASSIFICATION_TYPE":"U","TLE_LINE2":"2 46124  53.0565  25.2362 0001501  50.3445 309.7676 15.06390974 73339","OBJECT_NAME":"STARLINK-1614","MEAN_MOTION_DDOT":"0.0000000000000","OBJECT_TYPE":"PAYLOAD","MEAN_ANOMALY":"309.7676","MEAN_MOTION":"15.06390974","REV_AT_EPOCH":"7333","RA_OF_ASC_NODE":"25.2362","FILE":"3238376","BSTAR":"0.00009287500000","MEAN_ELEMENT_THEORY":"SGP4","RCS_SIZE":"LARGE","DECAY_DATE":null,"PERIOD":"95.593","NORAD_CAT_ID":"46124","CENTER_NAME":"EARTH"},{"PERIAPSIS":"546.390","MEAN_MOTION_DOT":"0.00000975","COUNTRY_CODE":"US","ECCENTRICITY":"0.00011880","LAUNCH_DATE":"2020-08-18","EPOCH":"2021-12-12T17:54:05.366016","TIME_SYSTEM":"UTC","APOAPSIS":"548.036","REF_FRAME":"TEME","OBJECT_ID":"2020-057J","EPHEMERIS_TYPE":"0","INCLINATION":"53.0543","ARG_OF_PERICENTER":"79.0881","SITE":"AFETR","REV_AT_EPOCH":"7401","RA_OF_ASC_NODE":"65.5989","FILE":"3238376","BSTAR":"0.00008434200000","MEAN_ELEMENT_THEORY":"SGP4","PERIOD":"95.592","DECAY_DATE":null,"RCS_SIZE":"LARGE","NORAD_CAT_ID":"46125","CENTER_NAME":"EARTH","MEAN_ANOMALY":"281.0242","MEAN_MOTION":"15.06400236","OBJECT_NAME":"STARLINK-1618","MEAN_MOTION_DDOT":"0.0000000000000","OBJECT_TYPE":"PAYLOAD","SEMIMAJOR_AXIS":"6925.348","TLE_LINE1":"1 46125U 20057J   21346.74589544  .00000975  00000-0  84342-4 0  9990","ELEMENT_SET_NO":"999","GP_ID":"191585439","TLE_LINE2":"2 46125  53.0543  65.5989 0001188  79.0881 281.0242 15.06400236 74011","CLASSIFICATION_TYPE":"U"},{"COUNTRY_CODE":"US","MEAN_MOTION_DOT":"0.00001778","PERIAPSIS":"546.120","LAUNCH_DATE":"2020-08-18","ECCENTRICITY":"0.00015820","OBJECT_ID":"2020-057K","REF_FRAME":"TEME","APOAPSIS":"548.311","TIME_SYSTEM":"UTC","EPOCH":"2021-12-12T22:03:33.751296","SITE":"AFETR","ARG_OF_PERICENTER":"47.7479","INCLINATION":"53.0704","EPHEMERIS_TYPE":"0","CENTER_NAME":"EARTH","NORAD_CAT_ID":"46126","RCS_SIZE":"LARGE","DECAY_DATE":null,"PERIOD":"95.592","MEAN_ELEMENT_THEORY":"SGP4","BSTAR":"0.00013823000000","FILE":"3238376","RA_OF_ASC_NODE":"64.7633","REV_AT_EPOCH":"7278","MEAN_MOTION":"15.06399361","MEAN_ANOMALY":"312.3644","OBJECT_TYPE":"PAYLOAD","OBJECT_NAME":"STARLINK-1619","MEAN_MOTION_DDOT":"0.0000000000000","CLASSIFICATION_TYPE":"U","TLE_LINE2":"2 46126  53.0704  64.7633 0001582  47.7479 312.3644 15.06399361 72783","GP_ID":"191585184","ELEMENT_SET_NO":"999","TLE_LINE1":"1 46126U 20057K   21346.91914064  .00001778  00000-0  13823-3 0  9996","SEMIMAJOR_AXIS":"6925.351"},{"TLE_LINE2":"2 46127  53.0555  46.3648 0001317  66.4926 293.6202 15.06396092 73006","CLASSIFICATION_TYPE":"U","SEMIMAJOR_AXIS":"6925.361","TLE_LINE1":"1 46127U 20057L   21346.57819303 -.00000559  00000-0 -18642-4 0  9992","ELEMENT_SET_NO":"999","GP_ID":"191585941","OBJECT_TYPE":"PAYLOAD","MEAN_MOTION_DDOT":"0.0000000000000","OBJECT_NAME":"STARLINK-1621","MEAN_ANOMALY":"293.6202","MEAN_MOTION":"15.06396092","RA_OF_ASC_NODE":"46.3648","FILE":"3238376","REV_AT_EPOCH":"7300","NORAD_CAT_ID":"46127","CENTER_NAME":"EARTH","MEAN_ELEMENT_THEORY":"SGP4","BSTAR":"-0.00001864200000","DECAY_DATE":null,"RCS_SIZE":"LARGE","PERIOD":"95.592","ARG_OF_PERICENTER":"66.4926","SITE":"AFETR","EPHEMERIS_TYPE":"0","INCLINATION":"53.0555","TIME_SYSTEM":"UTC","EPOCH":"2021-12-12T13:52:35.877792","REF_FRAME":"TEME","OBJECT_ID":"2020-057L","APOAPSIS":"548.138","ECCENTRICITY":"0.00013170","LAUNCH_DATE":"2020-08-18","PERIAPSIS":"546.313","MEAN_MOTION_DOT":"-0.00000559","COUNTRY_CODE":"US"},{"EPHEMERIS_TYPE":"0","INCLINATION":"53.0566","ARG_OF_PERICENTER":"58.8416","SITE":"AFETR","EPOCH":"2021-12-12T12:56:51.237024","TIME_SYSTEM":"UTC","APOAPSIS":"548.353","REF_FRAME":"TEME","OBJECT_ID":"2020-057M","ECCENTRICITY":"0.00016560","LAUNCH_DATE":"2020-08-18","PERIAPSIS":"546.059","MEAN_MOTION_DOT":"-0.00000913","COUNTRY_CODE":"US","TLE_LINE1":"1 46128U 20057M   21346.53948191 -.00000913  00000-0 -42366-4 0  9991","SEMIMAJOR_AXIS":"6925.341","ELEMENT_SET_NO":"999","GP_ID":"191555924","TLE_LINE2":"2 46128  53.0566  26.5439 0001656  58.8416 301.2736 15.06402528 73282","CLASSIFICATION_TYPE":"U","OBJECT_NAME":"STARLINK-1622","MEAN_MOTION_DDOT":"0.0000000000000","OBJECT_TYPE":"PAYLOAD","MEAN_ANOMALY":"301.2736","MEAN_MOTION":"15.06402528","REV_AT_EPOCH":"7328","RA_OF_ASC_NODE":"26.5439","FILE":"3238133","BSTAR":"-0.00004236600000","MEAN_ELEMENT_THEORY":"SGP4","DECAY_DATE":null,"PERIOD":"95.592","RCS_SIZE":"LARGE","NORAD_CAT_ID":"46128","CENTER_NAME":"EARTH"},{"MEAN_MOTION":"15.06392676","MEAN_ANOMALY":"292.2230","DECAY_DATE":null,"PERIOD":"95.593","RCS_SIZE":"LARGE","BSTAR":"-0.00001786500000","MEAN_ELEMENT_THEORY":"SGP4","CENTER_NAME":"EARTH","NORAD_CAT_ID":"46129","REV_AT_EPOCH":"7333","FILE":"3238376","RA_OF_ASC_NODE":"25.1686","GP_ID":"191584939","TLE_LINE1":"1 46129U 20057N   21346.84542441 -.00000547  00000-0 -17865-4 0  9993","ELEMENT_SET_NO":"999","SEMIMAJOR_AXIS":"6925.371","TLE_LINE2":"2 46129  53.0566  25.1686 0001467  67.8915 292.2230 15.06392676 73332","CLASSIFICATION_TYPE":"U","OBJECT_NAME":"STARLINK-1623","MEAN_MOTION_DDOT":"0.0000000000000","OBJECT_TYPE":"PAYLOAD","LAUNCH_DATE":"2020-08-18","ECCENTRICITY":"0.00014670","COUNTRY_CODE":"US","MEAN_MOTION_DOT":"-0.00000547","PERIAPSIS":"546.220","INCLINATION":"53.0566","EPHEMERIS_TYPE":"0","ARG_OF_PERICENTER":"67.8915","SITE":"AFETR","APOAPSIS":"548.252","OBJECT_ID":"2020-057N","REF_FRAME":"TEME","EPOCH":"2021-12-12T20:17:24.669024","TIME_SYSTEM":"UTC"}];
